[{"OBJECT_NAME":"FLOCK 4BE-27","OBJECT_ID":"2024-149AX","EPOCH":"2026-03-09T18:04:53.053248","MEAN_MOTION":15.32593322,"ECCENTRICITY":0.00027324,"INCLINATION":97.3862,"RA_OF_ASC_NODE":150.6783,"ARG_OF_PERICENTER":305.898,"MEAN_ANOMALY":54.2008,"EPHEMERIS_TYPE":0,"CLASSIFICATION_TYPE":"U","NORAD_CAT_ID":60513,"ELEMENT_SET_NO":999,"REV_AT_EPOCH":8690,"BSTAR":0.00036576028,"MEAN_MOTION_DOT":0.00011439,"MEAN_MOTION_DDOT":0},{"OBJECT_NAME":"STARLINK-32723","OBJECT_ID":"2024-251T","EPOCH":"2026-03-09T23:26:08.056896","MEAN_MOTION":15.30209203,"ECCENTRICITY":0.00011338,"INCLINATION":53.1601,"RA_OF_ASC_NODE":333.8785,"ARG_OF_PERICENTER":149.9938,"MEAN_ANOMALY":210.1128,"EPHEMERIS_TYPE":0,"CLASSIFICATION_TYPE":"U","NORAD_CAT_ID":62449,"ELEMENT_SET_NO":999,"REV_AT_EPOCH":6783,"BSTAR":0.00088181667,"MEAN_MOTION_DOT":0.00025856,"MEAN_MOTION_DDOT":0}]
